{"type":"FeatureCollection","metadata":{"generated":1717198140000,"url":"https://earthquake.usgs.gov/earthquakes/feed/v1.0/summary/all_hour.geojson","title":"USGS All Earthquakes, Past Hour","status":200,"api":"1.10.3","count":8},"features":[{"type":"Feature","properties":{"mag":1.05,"place":"6 km NNW of San Miguel, CA","time":1717197452540,"updated":1717197549620,"tz":null,"url":"https://earthquake.usgs.gov/earthquakes/eventpage/nc75013992","detail":"https://earthquake.usgs.gov/earthquakes/feed/v1.0/detail/nc75013992.geojson","felt":null,"cdi":null,"mmi":null,"alert":null,"status":"automatic","tsunami":0,"sig":17,"net":"nc","code":"75013992","ids":",nc75013992,","sources":",nc,","types":",nearby-cities,origin,phase-data,","nst":9,"dmin":0.1273,"rms":0.04,"gap":110,"magType":"md","type":"earthquake","title":"M 1.1 - 6 km NNW of San Miguel, CA"},"geometry":{"type":"Point","coordinates":[-120.733665466309,35.800666809082,10.0799999237061]},"id":"nc75013992"},
{"type":"Feature","properties":{"mag":1.88,"place":"10 km W of Jefferson, Oklahoma","time":1717197198972,"updated":1717197663929,"tz":null,"url":"https://earthquake.usgs.gov/earthquakes/eventpage/ok2024krqy","detail":"https://earthquake.usgs.gov/earthquakes/feed/v1.0/detail/ok2024krqy.geojson","felt":null,"cdi":null,"mmi":null,"alert":null,"status":"automatic","tsunami":0,"sig":54,"net":"ok","code":"2024krqy","ids":",ok2024krqy,","sources":",ok,","types":",origin,phase-data,","nst":13,"dmin":0.07429575175,"rms":0.2803903578,"gap":132.7180939,"magType":"ml","type":"earthquake","title":"M 1.9 - 10 km W of Jefferson, Oklahoma"},"geometry":{"type":"Point","coordinates":[-97.91345978,36.71627808,6.814801693]},"id":"ok2024krqy"},
{"type":"Feature","properties":{"mag":5.2,"place":"Kermadec Islands, New Zealand","time":1717197098370,"updated":1717198075040,"tz":null,"url":"https://earthquake.usgs.gov/earthquakes/eventpage/us7000mpdr","detail":"https://earthquake.usgs.gov/earthquakes/feed/v1.0/detail/us7000mpdr.geojson","felt":null,"cdi":null,"mmi":null,"alert":null,"status":"reviewed","tsunami":0,"sig":416,"net":"us","code":"7000mpdr","ids":",us7000mpdr,","sources":",us,","types":",origin,phase-data,","nst":39,"dmin":0.744,"rms":0.97,"gap":81,"magType":"mb","type":"earthquake","title":"M 5.2 - Kermadec Islands, New Zealand"},"geometry":{"type":"Point","coordinates":[-177.0703,-29.2245,35]},"id":"us7000mpdr"},
{"type":"Feature","properties":{"mag":1.68,"place":"14 km NNW of Piru, CA","time":1717195773590,"updated":1717196254948,"tz":null,"url":"https://earthquake.usgs.gov/earthquakes/eventpage/ci40609151","detail":"https://earthquake.usgs.gov/earthquakes/feed/v1.0/detail/ci40609151.geojson","felt":1,"cdi":2.7,"mmi":null,"alert":null,"status":"automatic","tsunami":0,"sig":44,"net":"ci","code":"40609151","ids":",ci40609151,","sources":",ci,","types":",dyfi,nearby-cities,origin,phase-data,scitech-link,","nst":17,"dmin":0.06232,"rms":0.2,"gap":162,"magType":"ml","type":"earthquake","title":"M 1.7 - 14 km NNW of Piru, CA"},"geometry":{"type":"Point","coordinates":[-118.8638333,34.5238333,1]},"id":"ci40609151"},
{"type":"Feature","properties":{"mag":2,"place":"62 km WNW of Nanwalek, Alaska","time":1717195648299,"updated":1717195832511,"tz":null,"url":"https://earthquake.usgs.gov/earthquakes/eventpage/ak0246zr2f7h","detail":"https://earthquake.usgs.gov/earthquakes/feed/v1.0/detail/ak0246zr2f7h.geojson","felt":null,"cdi":null,"mmi":null,"alert":null,"status":"automatic","tsunami":0,"sig":62,"net":"ak","code":"0246zr2f7h","ids":",ak0246zr2f7h,","sources":",ak,","types":",origin,phase-data,","nst":null,"dmin":null,"rms":0.46,"gap":null,"magType":"ml","type":"earthquake","title":"M 2.0 - 62 km WNW of Nanwalek, Alaska"},"geometry":{"type":"Point","coordinates":[-152.9202,59.5908,100.7]},"id":"ak0246zr2f7h"},
{"type":"Feature","properties":{"mag":1.84,"place":"11 km W of Jefferson, Oklahoma","time":1717195397833,"updated":1717195840130,"tz":null,"url":"https://earthquake.usgs.gov/earthquakes/eventpage/ok2024krpy","detail":"https://earthquake.usgs.gov/earthquakes/feed/v1.0/detail/ok2024krpy.geojson","felt":null,"cdi":null,"mmi":null,"alert":null,"status":"automatic","tsunami":0,"sig":52,"net":"ok","code":"2024krpy","ids":",ok2024krpy,","sources":",ok,","types":",origin,phase-data,","nst":16,"dmin":0.06891021878,"rms":0.237684424,"gap":90.71748352,"magType":"ml","type":"earthquake","title":"M 1.8 - 11 km W of Jefferson, Oklahoma"},"geometry":{"type":"Point","coordinates":[-97.92132568,36.71976852,3.184322596]},"id":"ok2024krpy"},
{"type":"Feature","properties":{"mag":0.56,"place":"8 km NW of The Geysers, CA","time":1717195259540,"updated":1717195357960,"tz":null,"url":"https://earthquake.usgs.gov/earthquakes/eventpage/nc75013987","detail":"https://earthquake.usgs.gov/earthquakes/feed/v1.0/detail/nc75013987.geojson","felt":null,"cdi":null,"mmi":null,"alert":null,"status":"automatic","tsunami":0,"sig":5,"net":"nc","code":"75013987","ids":",nc75013987,","sources":",nc,","types":",nearby-cities,origin,phase-data,","nst":8,"dmin":0.0105,"rms":0.03,"gap":120,"magType":"md","type":"earthquake","title":"M 0.6 - 8 km NW of The Geysers, CA"},"geometry":{"type":"Point","coordinates":[-122.830665588379,38.8131675720215,0.759999990463257]},"id":"nc75013987"},
{"type":"Feature","properties":{"mag":1.4,"place":"12 km WNW of Point MacKenzie, Alaska","time":1717194844264,"updated":1717194949929,"tz":null,"url":"https://earthquake.usgs.gov/earthquakes/eventpage/ak0246zqzl1m","detail":"https://earthquake.usgs.gov/earthquakes/feed/v1.0/detail/ak0246zqzl1m.geojson","felt":null,"cdi":null,"mmi":null,"alert":null,"status":"automatic","tsunami":0,"sig":30,"net":"ak","code":"0246zqzl1m","ids":",ak0246zqzl1m,","sources":",ak,","types":",origin,phase-data,","nst":null,"dmin":null,"rms":0.4,"gap":null,"magType":"ml","type":"earthquake","title":"M 1.4 - 12 km WNW of Point MacKenzie, Alaska"},"geometry":{"type":"Point","coordinates":[-150.1981,61.3835,32.9]},"id":"ak0246zqzl1m"}],"bbox":[-177.0703,-29.2245,0.75999999046326,-97.91345978,61.3835,100.7]}